0 SL-8 R/B
1 23279U 94061B   13283.14570427  .00005205  00000-0  38639-3 0  8296
2 23279 082.9737 285.9080 0805499 252.4056 158.4849 13.76323321938866
0 SL-8 R/B
1 23279U 94061B   13286.19876150  .00004844  00000-0  35911-3 0  8317
2 23279 082.9729 283.6206 0805478 243.7321 165.8251 13.76349957939286
0 SL-8 R/B
1 23279U 94061B   13287.52910375  .00005022  00000-0  37215-3 0  8322
2 23279 082.9725 282.6238 0805468 239.9559 277.5179 13.76360400939461
0 SL-8 R/B
1 23279U 94061B   13288.54718766  .00006316  00000-0  46816-3 0  8330
2 23279 082.9723 281.8608 0805451 237.0644 282.0535 13.76372901939609
0 SL-8 R/B
1 23279U 94061B   13289.56273660  .00006186  00000-0  45829-3 0  8341
2 23279 082.9722 281.0997 0805441 234.1814 274.0652 13.76383935939742
0 SL-8 R/B
1 23279U 94061B   13290.93045338  .00005820  00000-0  43083-3 0  8358
2 23279 082.9724 280.0744 0805435 230.2976 211.1209 13.76398083939933
0 SL-8 R/B
1 23279U 94061B   13292.16019225  .00005285  00000-0  39083-3 0  8362
2 23279 082.9727 279.1525 0805442 226.8061 184.5504 13.76406032940102
0 SL-8 R/B
1 23279U 94061B   13293.49058043  .00004994  00000-0  36895-3 0  8375
2 23279 082.9732 278.1553 0805449 223.0282 296.7503 13.76420828940282
0 SL-8 R/B
1 23279U 94061B   13294.57794244  .00006360  00000-0  46996-3 0  8388
2 23279 082.9735 277.3405 0805485 219.9404 284.7821 13.76427052940435
0 SL-8 R/B
1 23279U 94061B   13296.16019160  .00005283  00000-0  38963-3 0  8391
2 23279 082.9738 276.1550 0805523 215.4483 205.0961 13.76443196940659
